{
  "type": "FeatureCollection",
  "features": [
    {
      "type": "Feature",
      "properties": {
        "norad_id": 28890,
        "name": "BEIJING 1",
        "group": "dmc",
        "lat": -56.20858586164361,
        "lon": -67.39622428796045,
        "alt_km": 696.1613693459967,
        "timestamp": "2025-12-23T14:49:08.996564+00:00",
        "meta_object_name": "BEIJING 1",
        "meta_object_id": "2005-043A",
        "meta_epoch": "2025-12-23T07:10:35.411808",
        "meta_mean_motion": 14.63374804,
        "meta_eccentricity": 0.00157762,
        "meta_inclination": 98.2663,
        "meta_ra_of_asc_node": 124.8314,
        "meta_arg_of_pericenter": 110.3124,
        "meta_mean_anomaly": 249.9775,
        "meta_ephemeris_type": 0,
        "meta_classification_type": "U",
        "meta_norad_cat_id": 28890,
        "meta_element_set_no": 999,
        "meta_rev_at_epoch": 7492,
        "meta_bstar": 5.5785881e-05,
        "meta_mean_motion_dot": 2.4e-06,
        "meta_mean_motion_ddot": 0,
        "tle_line1": "1 28890U 05043A   25357.29902097  .00000240  00000+0  55786-4 0  9999",
        "tle_line2": "2 28890  98.2663 124.8314 0015776 110.3124 249.9775 14.63374804 74929"
      },
      "geometry": {
        "type": "Point",
        "coordinates": [
          -67.39622428796045,
          -56.20858586164361
        ]
      }
    },
    {
      "type": "Feature",
      "properties": {
        "norad_id": 33320,
        "name": "HUANJING 1A (HJ-1A)",
        "group": "dmc",
        "lat": -32.50968113507001,
        "lon": -9.62133910138191,
        "alt_km": 613.2520148673657,
        "timestamp": "2025-12-23T14:49:08.996590+00:00",
        "meta_object_name": "HUANJING 1A (HJ-1A)",
        "meta_object_id": "2008-041A",
        "meta_epoch": "2025-12-23T06:52:19.299072",
        "meta_mean_motion": 14.83426962,
        "meta_eccentricity": 0.00193784,
        "meta_inclination": 97.6543,
        "meta_ra_of_asc_node": 345.1446,
        "meta_arg_of_pericenter": 1.0541,
        "meta_mean_anomaly": 359.0711,
        "meta_ephemeris_type": 0,
        "meta_classification_type": "U",
        "meta_norad_cat_id": 33320,
        "meta_element_set_no": 999,
        "meta_rev_at_epoch": 93232,
        "meta_bstar": 0.00022618692,
        "meta_mean_motion_dot": 1.812e-05,
        "meta_mean_motion_ddot": 0,
        "tle_line1": "1 33320U 08041A   25357.28633448  .00001812  00000+0  22619-3 0  9998",
        "tle_line2": "2 33320  97.6543 345.1446 0019378   1.0541 359.0711 14.83426962932323"
      },
      "geometry": {
        "type": "Point",
        "coordinates": [
          -9.62133910138191,
          -32.50968113507001
        ]
      }
    },
    {
      "type": "Feature",
      "properties": {
        "norad_id": 33321,
        "name": "HUANJING 1B (HJ-1B)",
        "group": "dmc",
        "lat": 13.462089703000315,
        "lon": 170.97154323614868,
        "alt_km": 636.6448818926256,
        "timestamp": "2025-12-23T14:49:08.996605+00:00",
        "meta_object_name": "HUANJING 1B (HJ-1B)",
        "meta_object_id": "2008-041B",
        "meta_epoch": "2025-12-23T05:58:37.133760",
        "meta_mean_motion": 14.82846017,
        "meta_eccentricity": 0.00378657,
        "meta_inclination": 97.64,
        "meta_ra_of_asc_node": 348.7781,
        "meta_arg_of_pericenter": 42.4143,
        "meta_mean_anomaly": 317.9987,
        "meta_ephemeris_type": 0,
        "meta_classification_type": "U",
        "meta_norad_cat_id": 33321,
        "meta_element_set_no": 999,
        "meta_rev_at_epoch": 93233,
        "meta_bstar": 0.00012646339,
        "meta_mean_motion_dot": 9.85e-06,
        "meta_mean_motion_ddot": 0,
        "tle_line1": "1 33321U 08041B   25357.24904090  .00000985  00000+0  12646-3 0  9998",
        "tle_line2": "2 33321  97.6400 348.7781 0037865  42.4143 317.9987 14.82846017932330"
      },
      "geometry": {
        "type": "Point",
        "coordinates": [
          170.97154323614868,
          13.462089703000315
        ]
      }
    },
    {
      "type": "Feature",
      "properties": {
        "norad_id": 33446,
        "name": "YAOGAN-4",
        "group": "dmc",
        "lat": 70.85815728137607,
        "lon": -96.03314717196308,
        "alt_km": 621.6234923053717,
        "timestamp": "2025-12-23T14:49:08.996634+00:00",
        "meta_object_name": "YAOGAN-4",
        "meta_object_id": "2008-061A",
        "meta_epoch": "2025-12-23T01:32:09.119616",
        "meta_mean_motion": 14.8271129,
        "meta_eccentricity": 0.00130344,
        "meta_inclination": 97.9196,
        "meta_ra_of_asc_node": 287.0626,
        "meta_arg_of_pericenter": 286.8037,
        "meta_mean_anomaly": 73.1747,
        "meta_ephemeris_type": 0,
        "meta_classification_type": "U",
        "meta_norad_cat_id": 33446,
        "meta_element_set_no": 999,
        "meta_rev_at_epoch": 91956,
        "meta_bstar": 0.0001704414,
        "meta_mean_motion_dot": 1.323e-05,
        "meta_mean_motion_ddot": 0,
        "tle_line1": "1 33446U 08061A   25357.06399444  .00001323  00000+0  17044-3 0  9993",
        "tle_line2": "2 33446  97.9196 287.0626 0013034 286.8037  73.1747 14.82711290919563"
      },
      "geometry": {
        "type": "Point",
        "coordinates": [
          -96.03314717196308,
          70.85815728137607
        ]
      }
    },
    {
      "type": "Feature",
      "properties": {
        "norad_id": 35681,
        "name": "DEIMOS-1",
        "group": "dmc",
        "lat": -77.0400592343298,
        "lon": -58.37672274522326,
        "alt_km": 654.2901909955917,
        "timestamp": "2025-12-23T14:49:08.996647+00:00",
        "meta_object_name": "DEIMOS-1",
        "meta_object_id": "2009-041A",
        "meta_epoch": "2025-12-23T07:08:00.360096",
        "meta_mean_motion": 14.74968378,
        "meta_eccentricity": 0.00025389,
        "meta_inclination": 97.7151,
        "meta_ra_of_asc_node": 157.4093,
        "meta_arg_of_pericenter": 62.9326,
        "meta_mean_anomaly": 297.2143,
        "meta_ephemeris_type": 0,
        "meta_classification_type": "U",
        "meta_norad_cat_id": 35681,
        "meta_element_set_no": 999,
        "meta_rev_at_epoch": 88095,
        "meta_bstar": 0.00014413303,
        "meta_mean_motion_dot": 9.21e-06,
        "meta_mean_motion_ddot": 0,
        "tle_line1": "1 35681U 09041A   25357.29722639  .00000921  00000+0  14413-3 0  9996",
        "tle_line2": "2 35681  97.7151 157.4093 0002538  62.9326 297.2143 14.74968378880955"
      },
      "geometry": {
        "type": "Point",
        "coordinates": [
          -58.37672274522326,
          -77.0400592343298
        ]
      }
    },
    {
      "type": "Feature",
      "properties": {
        "norad_id": 35683,
        "name": "UK-DMC 2",
        "group": "dmc",
        "lat": -58.15354276727906,
        "lon": 145.0584452617494,
        "alt_km": 651.1738914138123,
        "timestamp": "2025-12-23T14:49:08.996659+00:00",
        "meta_object_name": "UK-DMC 2",
        "meta_object_id": "2009-041C",
        "meta_epoch": "2025-12-23T06:56:57.680736",
        "meta_mean_motion": 14.75643474,
        "meta_eccentricity": 0.00015432,
        "meta_inclination": 97.8571,
        "meta_ra_of_asc_node": 131.8948,
        "meta_arg_of_pericenter": 93.5401,
        "meta_mean_anomaly": 266.5985,
        "meta_ephemeris_type": 0,
        "meta_classification_type": "U",
        "meta_norad_cat_id": 35683,
        "meta_element_set_no": 999,
        "meta_rev_at_epoch": 88062,
        "meta_bstar": 0.0001815188,
        "meta_mean_motion_dot": 1.19e-05,
        "meta_mean_motion_ddot": 0,
        "tle_line1": "1 35683U 09041C   25357.28955649  .00001190  00000+0  18152-3 0  9999",
        "tle_line2": "2 35683  97.8571 131.8948 0001543  93.5401 266.5985 14.75643474880623"
      },
      "geometry": {
        "type": "Point",
        "coordinates": [
          145.0584452617494,
          -58.15354276727906
        ]
      }
    },
    {
      "type": "Feature",
      "properties": {
        "norad_id": 40715,
        "name": "DMC3-FM1",
        "group": "dmc",
        "lat": 13.499931501550229,
        "lon": -137.4405237734321,
        "alt_km": 613.580751284394,
        "timestamp": "2025-12-23T14:49:08.996671+00:00",
        "meta_object_name": "DMC3-FM1",
        "meta_object_id": "2015-032A",
        "meta_epoch": "2025-12-23T06:40:29.016768",
        "meta_mean_motion": 14.85458942,
        "meta_eccentricity": 0.0004035,
        "meta_inclination": 97.6685,
        "meta_ra_of_asc_node": 224.0863,
        "meta_arg_of_pericenter": 278.3299,
        "meta_mean_anomaly": 81.7459,
        "meta_ephemeris_type": 0,
        "meta_classification_type": "U",
        "meta_norad_cat_id": 40715,
        "meta_element_set_no": 999,
        "meta_rev_at_epoch": 56379,
        "meta_bstar": 0.00013131869,
        "meta_mean_motion_dot": 1.081e-05,
        "meta_mean_motion_ddot": 0,
        "tle_line1": "1 40715U 15032A   25357.27811362  .00001081  00000+0  13132-3 0  9992",
        "tle_line2": "2 40715  97.6685 224.0863 0004035 278.3299  81.7459 14.85458942563791"
      },
      "geometry": {
        "type": "Point",
        "coordinates": [
          -137.4405237734321,
          13.499931501550229
        ]
      }
    },
    {
      "type": "Feature",
      "properties": {
        "norad_id": 40716,
        "name": "DMC3-FM2",
        "group": "dmc",
        "lat": -71.87730849856415,
        "lon": 21.534956846779234,
        "alt_km": 616.6335994957299,
        "timestamp": "2025-12-23T14:49:08.996683+00:00",
        "meta_object_name": "DMC3-FM2",
        "meta_object_id": "2015-032B",
        "meta_epoch": "2025-12-23T07:12:51.600672",
        "meta_mean_motion": 14.85456931,
        "meta_eccentricity": 0.0004686,
        "meta_inclination": 97.6742,
        "meta_ra_of_asc_node": 225.5591,
        "meta_arg_of_pericenter": 284.9406,
        "meta_mean_anomaly": 75.129,
        "meta_ephemeris_type": 0,
        "meta_classification_type": "U",
        "meta_norad_cat_id": 40716,
        "meta_element_set_no": 999,
        "meta_rev_at_epoch": 56379,
        "meta_bstar": 2.7315044e-05,
        "meta_mean_motion_dot": 1.84e-06,
        "meta_mean_motion_ddot": 0,
        "tle_line1": "1 40716U 15032B   25357.30059723  .00000184  00000+0  27315-4 0  9994",
        "tle_line2": "2 40716  97.6742 225.5591 0004686 284.9406  75.1290 14.85456931563791"
      },
      "geometry": {
        "type": "Point",
        "coordinates": [
          21.534956846779234,
          -71.87730849856415
        ]
      }
    },
    {
      "type": "Feature",
      "properties": {
        "norad_id": 40717,
        "name": "DMC3-FM3",
        "group": "dmc",
        "lat": 42.01907953209112,
        "lon": 54.487958068224614,
        "alt_km": 611.1931990012627,
        "timestamp": "2025-12-23T14:49:08.996694+00:00",
        "meta_object_name": "DMC3-FM3",
        "meta_object_id": "2015-032C",
        "meta_epoch": "2025-12-23T06:07:07.921056",
        "meta_mean_motion": 14.85442906,
        "meta_eccentricity": 0.00040619,
        "meta_inclination": 97.6795,
        "meta_ra_of_asc_node": 227.1553,
        "meta_arg_of_pericenter": 285.5807,
        "meta_mean_anomaly": 74.496,
        "meta_ephemeris_type": 0,
        "meta_classification_type": "U",
        "meta_norad_cat_id": 40717,
        "meta_element_set_no": 999,
        "meta_rev_at_epoch": 56379,
        "meta_bstar": 6.6553305e-05,
        "meta_mean_motion_dot": 5.22e-06,
        "meta_mean_motion_ddot": 0,
        "tle_line1": "1 40717U 15032C   25357.25495279  .00000522  00000+0  66553-4 0  9992",
        "tle_line2": "2 40717  97.6795 227.1553 0004061 285.5807  74.4960 14.85442906563798"
      },
      "geometry": {
        "type": "Point",
        "coordinates": [
          54.487958068224614,
          42.01907953209112
        ]
      }
    }
  ]
}